{
  "norad_id": 56529,
  "name": "STARLINK-6307",
  "history": [
    {
      "epoch": "2026-04-13T01:54:35.616096Z",
      "apogee_km": 488.9875834896511,
      "perigee_km": 487.14181114937765,
      "latitude_deg": -5.1017426206786375e-06,
      "longitude_deg": 136.6507884025772,
      "height_km": 487.8678514459916,
      "semi_major_axis_km": 6866.201697319514,
      "eccentricity": 0.00013441,
      "inclination_deg": 43.0036,
      "raan_deg": 6.5747,
      "arg_perigee_deg": 268.3896,
      "mean_anomaly_deg": 91.6801,
      "mean_motion_rev_day": 15.25906513
    },
    {
      "epoch": "2026-04-13T23:54:14.260896Z",
      "apogee_km": 489.18183981910624,
      "perigee_km": 486.97956915256964,
      "latitude_deg": 5.071529567462758e-05,
      "longitude_deg": 160.67296418481368,
      "height_km": 487.86416222892484,
      "semi_major_axis_km": 6866.217704485838,
      "eccentricity": 0.00016037,
      "inclination_deg": 43.0035,
      "raan_deg": 1.4111,
      "arg_perigee_deg": 269.6857,
      "mean_anomaly_deg": 90.3811,
      "mean_motion_rev_day": 15.25901177
    },
    {
      "epoch": "2026-04-15T08:53:40.742880Z",
      "apogee_km": 488.76189717948,
      "perigee_km": 487.33359342876065,
      "latitude_deg": 3.249650103378957e-05,
      "longitude_deg": 16.714625939138838,
      "height_km": 487.4399316005736,
      "semi_major_axis_km": 6866.18474530412,
      "eccentricity": 0.00010401,
      "inclination_deg": 43.0032,
      "raan_deg": 353.668,
      "arg_perigee_deg": 302.5877,
      "mean_anomaly_deg": 57.4874,
      "mean_motion_rev_day": 15.25912164
    },
    {
      "epoch": "2026-04-16T08:27:34.265088Z",
      "apogee_km": 489.8357334473758,
      "perigee_km": 486.26943457744073,
      "latitude_deg": 5.3697991373197514e-05,
      "longitude_deg": 16.743966561013394,
      "height_km": 487.54586100950934,
      "semi_major_axis_km": 6866.189584012408,
      "eccentricity": 0.0002597,
      "inclination_deg": 43.004,
      "raan_deg": 348.1381,
      "arg_perigee_deg": 279.1951,
      "mean_anomaly_deg": 80.8607,
      "mean_motion_rev_day": 15.25910551
    },
    {
      "epoch": "2026-04-17T22:09:48.206304Z",
      "apogee_km": 489.2948996578407,
      "perigee_km": 486.82732538016444,
      "latitude_deg": -8.264227420548138e-06,
      "longitude_deg": 160.7886713592286,
      "height_km": 487.83514419726737,
      "semi_major_axis_km": 6866.198112519002,
      "eccentricity": 0.00017969,
      "inclination_deg": 43.0035,
      "raan_deg": 339.2894,
      "arg_perigee_deg": 270.1646,
      "mean_anomaly_deg": 89.8999,
      "mean_motion_rev_day": 15.25907708
    },
    {
      "epoch": "2026-04-18T07:35:21.493536Z",
      "apogee_km": 489.28010731060476,
      "perigee_km": 486.8277785534274,
      "latitude_deg": -2.7733861815577954e-05,
      "longitude_deg": 16.800445387842718,
      "height_km": 487.8172824694264,
      "semi_major_axis_km": 6866.190942932016,
      "eccentricity": 0.00017858,
      "inclination_deg": 43.0035,
      "raan_deg": 337.077,
      "arg_perigee_deg": 270.665,
      "mean_anomaly_deg": 89.3996,
      "mean_motion_rev_day": 15.25910098
    },
    {
      "epoch": "2026-04-19T21:17:35.725056Z",
      "apogee_km": 489.4604804434093,
      "perigee_km": 486.6810395421635,
      "latitude_deg": -1.189857212232131e-05,
      "longitude_deg": 160.84271681538365,
      "height_km": 487.80906033418154,
      "semi_major_axis_km": 6866.207759992786,
      "eccentricity": 0.0002024,
      "inclination_deg": 43.003,
      "raan_deg": 328.227,
      "arg_perigee_deg": 271.6245,
      "mean_anomaly_deg": 88.4374,
      "mean_motion_rev_day": 15.25904492
    },
    {
      "epoch": "2026-04-20T00:26:06.811296Z",
      "apogee_km": 489.3409469889284,
      "perigee_km": 486.7927614145574,
      "latitude_deg": -2.7476589750192877e-05,
      "longitude_deg": 112.84713796526634,
      "height_km": 487.8302052146321,
      "semi_major_axis_km": 6866.203854201743,
      "eccentricity": 0.00018556,
      "inclination_deg": 43.0033,
      "raan_deg": 327.49,
      "arg_perigee_deg": 270.6409,
      "mean_anomaly_deg": 89.4229,
      "mean_motion_rev_day": 15.25905794
    },
    {
      "epoch": "2026-04-21T20:25:23.645568Z",
      "apogee_km": 489.1687355810218,
      "perigee_km": 487.018232193469,
      "latitude_deg": 2.6965371785353724e-05,
      "longitude_deg": 160.89542546021386,
      "height_km": 487.8934656487359,
      "semi_major_axis_km": 6866.230483887245,
      "eccentricity": 0.0001566,
      "inclination_deg": 43.0027,
      "raan_deg": 317.1649,
      "arg_perigee_deg": 268.7912,
      "mean_anomaly_deg": 91.276,
      "mean_motion_rev_day": 15.25896917
    },
    {
      "epoch": "2026-04-22T19:59:17.134944Z",
      "apogee_km": 489.32516591228614,
      "perigee_km": 486.78330191749046,
      "latitude_deg": 1.6062175871006924e-06,
      "longitude_deg": 160.92204926836686,
      "height_km": 487.8628054548096,
      "semi_major_axis_km": 6866.1912339148885,
      "eccentricity": 0.0001851,
      "inclination_deg": 43.0026,
      "raan_deg": 311.6322,
      "arg_perigee_deg": 268.5996,
      "mean_anomaly_deg": 91.4643,
      "mean_motion_rev_day": 15.25910001
    },
    {
      "epoch": "2026-04-22T21:33:32.680224Z",
      "apogee_km": 489.1730835983317,
      "perigee_km": 486.93333235249065,
      "latitude_deg": -2.698946467809629e-05,
      "longitude_deg": 136.92432856302284,
      "height_km": 487.8902478985109,
      "semi_major_axis_km": 6866.190207975411,
      "eccentricity": 0.0001631,
      "inclination_deg": 43.0025,
      "raan_deg": 311.2638,
      "arg_perigee_deg": 266.9434,
      "mean_anomaly_deg": 93.123,
      "mean_motion_rev_day": 15.25910343
    },
    {
      "epoch": "2026-04-24T20:41:19.251168Z",
      "apogee_km": 488.93698737885916,
      "perigee_km": 487.146287990151,
      "latitude_deg": -4.64104401077424e-05,
      "longitude_deg": 136.98281543227858,
      "height_km": 487.78755498131414,
      "semi_major_axis_km": 6866.178637684505,
      "eccentricity": 0.0001304,
      "inclination_deg": 43.0027,
      "raan_deg": 300.2019,
      "arg_perigee_deg": 271.9956,
      "mean_anomaly_deg": 88.0745,
      "mean_motion_rev_day": 15.259142
    },
    {
      "epoch": "2026-04-25T18:40:57.411264Z",
      "apogee_km": 489.16519750589214,
      "perigee_km": 486.97625048348164,
      "latitude_deg": 4.409420522692215e-05,
      "longitude_deg": 161.01075262524535,
      "height_km": 487.8415083542698,
      "semi_major_axis_km": 6866.207723994687,
      "eccentricity": 0.0001594,
      "inclination_deg": 43.0026,
      "raan_deg": 295.042,
      "arg_perigee_deg": 270.3417,
      "mean_anomaly_deg": 89.7252,
      "mean_motion_rev_day": 15.25904504
    },
    {
      "epoch": "2026-04-26T11:57:48.779136Z",
      "apogee_km": 489.17075622485936,
      "perigee_km": 486.9564065373643,
      "latitude_deg": -2.1999719644706667e-05,
      "longitude_deg": -102.9690531935473,
      "height_km": 487.80620796594934,
      "semi_major_axis_km": 6866.200581381112,
      "eccentricity": 0.00016125,
      "inclination_deg": 43.0026,
      "raan_deg": 290.986,
      "arg_perigee_deg": 271.7965,
      "mean_anomaly_deg": 88.2701,
      "mean_motion_rev_day": 15.25906885
    },
    {
      "epoch": "2026-04-27T19:23:00.113280Z",
      "apogee_km": 489.2073802983268,
      "perigee_km": 486.9223083245406,
      "latitude_deg": 2.6504628515232717e-05,
      "longitude_deg": 137.06860791895917,
      "height_km": 487.9030426647691,
      "semi_major_axis_km": 6866.201844311434,
      "eccentricity": 0.0001664,
      "inclination_deg": 43.0024,
      "raan_deg": 283.6112,
      "arg_perigee_deg": 266.9464,
      "mean_anomaly_deg": 93.1197,
      "mean_motion_rev_day": 15.25906464
    },
    {
      "epoch": "2026-04-28T17:22:38.581824Z",
      "apogee_km": 489.2685363504488,
      "perigee_km": 486.8667379683711,
      "latitude_deg": -1.907943246005543e-05,
      "longitude_deg": 161.0915121151085,
      "height_km": 487.943356427914,
      "semi_major_axis_km": 6866.20463715941,
      "eccentricity": 0.0001749,
      "inclination_deg": 43.0021,
      "raan_deg": 278.4477,
      "arg_perigee_deg": 265.3022,
      "mean_anomaly_deg": 94.7629,
      "mean_motion_rev_day": 15.25905533
    }
  ]
}